NORAD_CAT_ID,OBJECT_NAME,OBJECT_TYPE,EPOCH,MEAN_MOTION,ECCENTRICITY,INCLINATION,RA_OF_ASC_NODE,ARG_OF_PERICENTER,MEAN_ANOMALY,BSTAR,MEAN_MOTION_DOT,MEAN_MOTION_DDOT,TLE_LINE0,TLE_LINE1,TLE_LINE2,SEMIMAJOR_AXIS,PERIOD,APOGEE,PERIGEE,DECAYED
51960.0,STARLINK-3691,PAYLOAD,2022-12-04 06:23:42,15.08847828,0.0002983,53.219,337.6293,31.5328,328.5842,9.0852e-05,1.158e-05,0.0,0 STARLINK-3691,1 51960U 22025E   22338.26645969  .00001158  00000-0  90852-4 0  9990,2 51960  53.2190 337.6293 0002983  31.5328 328.5842 15.08847828 41334,6917.856,95.437,541.785,537.658,0.0
51960.0,STARLINK-3691,PAYLOAD,2022-12-04 17:31:24,15.08837251,0.0002792,53.218,335.5485,30.5173,329.5981,4.0701e-05,3.59e-06,0.0,0 STARLINK-3691,1 51960U 22025E   22338.73014743  .00000359  00000-0  40701-4 0  9992,2 51960  53.2180 335.5485 0002792  30.5173 329.5981 15.08837251 41400,6917.889,95.438,541.685,537.822,0.0
51960.0,STARLINK-3691,PAYLOAD,2022-12-05 03:03:43,15.08841332,0.0002762,53.2189,333.7639,26.8385,333.2749,0.00014229,1.977e-05,0.0,0 STARLINK-3691,1 51960U 22025E   22339.12758248  .00001977  00000-0  14229-3 0  9993,2 51960  53.2189 333.7639 0002762  26.8385 333.2749 15.08841332 42556,6917.876,95.437,541.6519999999998,537.831,0.0
51960.0,STARLINK-3691,PAYLOAD,2022-12-05 09:25:15,15.0883832,0.0002826,53.2186,332.5738,30.5088,329.6068,0.00012069,1.633e-05,0.0,0 STARLINK-3691,1 51960U 22025E   22339.39254597  .00001633  00000-0  12069-3 0  9999,2 51960  53.2186 332.5738 0002826  30.5088 329.6068 15.08838320 41503,6917.886,95.438,541.706,537.7959999999998,0.0
51960.0,STARLINK-3691,PAYLOAD,2022-12-05 17:22:11,15.08847207,0.0002692,53.2198,331.0873,32.5428,327.573,0.00012306,1.671e-05,0.0,0 STARLINK-3691,1 51960U 22025E   22339.72374001  .00001671  00000-0  12306-3 0  9995,2 51960  53.2198 331.0873 0002692  32.5428 327.5730 15.08847207 41553,6917.858,95.437,541.586,537.861,0.0
51960.0,STARLINK-3691,PAYLOAD,2022-12-06 09:16:01,15.08853225,0.000273,53.2191,328.1128,35.2183,324.8989,7.7438e-05,9.45e-06,0.0,0 STARLINK-3691,1 51960U 22025E   22340.38613382  .00000945  00000-0  77438-4 0  9998,2 51960  53.2191 328.1128 0002730  35.2183 324.8989 15.08853225 42742,6917.84,95.437,541.594,537.816,0.0
51960.0,STARLINK-3691,PAYLOAD,2022-12-06 23:34:31,15.08832481,0.0002433,53.2165,325.432,37.3961,322.72,-8.858700000000001e-05,-1.698e-05,0.0,0 STARLINK-3691,1 51960U 22025E   22340.98231350 -.00001698  00000-0 -88587-4 0  9990,2 51960  53.2165 325.4320 0002433  37.3961 322.7200 15.08832481 42838,6917.903,95.438,541.451,538.085,0.0
51960.0,STARLINK-3691,PAYLOAD,2022-12-07 10:42:13,15.08840381,0.0002783,53.219,323.3556,29.29,330.8247,-1.2615e-06,-3.09e-06,0.0,0 STARLINK-3691,1 51960U 22025E   22341.44598972 -.00000309  00000-0 -12615-5 0  9996,2 51960  53.2190 323.3556 0002783  29.2900 330.8247 15.08840381 42902,6917.879,95.438,541.669,537.819,0.0
51960.0,STARLINK-3691,PAYLOAD,2022-12-07 15:28:22,15.08843056,0.0002796,53.2193,322.4624,33.0246,327.092,0.00012623,1.721e-05,0.0,0 STARLINK-3691,1 51960U 22025E   22341.64470679  .00001721  00000-0  12623-3 0  9995,2 51960  53.2193 322.4624 0002796  33.0246 327.0920 15.08843056 41841,6917.871,95.437,541.67,537.802,0.0
51960.0,STARLINK-3691,PAYLOAD,2022-12-08 05:46:50,15.08845203,0.0002878999999999,53.2186,319.7907,41.3519,318.7691,0.00014508,2.022e-05,0.0,0 STARLINK-3691,1 51960U 22025E   22342.24086674  .00002022  00000-0  14508-3 0  9999,2 51960  53.2186 319.7907 0002879  41.3519 318.7691 15.08845203 41931,6917.864000000001,95.437,541.721,537.738,0.0
51960.0,STARLINK-3691,PAYLOAD,2022-12-08 15:19:08,15.08856008,0.0002671,53.2185,318.0043,34.6857,325.4309,0.00028148,4.196e-05,0.0,0 STARLINK-3691,1 51960U 22025E   22342.63829820  .00004196  00000-0  28148-3 0  9999,2 51960  53.2185 318.0043 0002671  34.6857 325.4309 15.08856008 41995,6917.831,95.437,541.544,537.849,0.0
51960.0,STARLINK-3691,PAYLOAD,2022-12-09 07:12:59,15.08867447,0.0002245,53.2191,315.0345,34.3038,325.8099,0.00011466,1.538e-05,0.0,0 STARLINK-3691,1 51960U 22025E   22343.30068554  .00001538  00000-0  11466-3 0  9995,2 51960  53.2191 315.0345 0002245  34.3038 325.8099 15.08867447 42090,6917.795999999999,95.436,541.215,538.1080000000002,0.0
51960.0,STARLINK-3691,PAYLOAD,2022-12-10 05:28:26,15.08815713,0.0002875,53.2194,310.8761,24.957,335.1561,-0.00033398,-5.597e-05,0.0,0 STARLINK-3691,1 51960U 22025E   22344.22808341 -.00005597  00000-0 -33398-3 0  9992,2 51960  53.2194 310.8761 0002875  24.9570 335.1561 15.08815713 43327,6917.955,95.439,541.809,537.831,0.0
51960.0,STARLINK-3691,PAYLOAD,2022-12-10 07:03:48,15.08835643,0.0002984,53.2189,310.5751,21.2216,338.89,-3.6568e-05,-8.71e-06,0.0,0 STARLINK-3691,1 51960U 22025E   22344.29431254 -.00000871  00000-0 -36568-4 0  9997,2 51960  53.2189 310.5751 0002984  21.2216 338.8900 15.08835643 43337,6917.894,95.438,541.823,537.694,0.0
51960.0,STARLINK-3691,PAYLOAD,2022-12-10 21:22:19,15.08792827,0.0002222,53.2193,307.8947,17.8678,342.2392,-0.00020736,-3.583e-05,0.0,0 STARLINK-3691,1 51960U 22025E   22344.89050465 -.00003583  00000-0 -20736-3 0  9996,2 51960  53.2193 307.8947 0002222  17.8678 342.2392 15.08792827 43426,6918.025,95.441,541.427,538.352,0.0
51960.0,STARLINK-3691,PAYLOAD,2022-12-11 05:19:14,15.08831005,0.0002808,53.2191,306.4078,29.9706,330.1446,0.00010746,1.422e-05,0.0,0 STARLINK-3691,1 51960U 22025E   22345.22169451  .00001422  00000-0  10746-3 0  9998,2 51960  53.2191 306.4078 0002808  29.9706 330.1446 15.08831005 43473,6917.908,95.438,541.715,537.83,0.0
51960.0,STARLINK-3691,PAYLOAD,2022-12-11 06:54:37,15.08833061,0.0002841,53.2186,306.1095,28.0528,332.0617,0.00015767,2.221e-05,0.0,0 STARLINK-3691,1 51960U 22025E   22345.28793458  .00002221  00000-0  15767-3 0  9990,2 51960  53.2186 306.1095 0002841  28.0528 332.0617 15.08833061 42397,6917.901999999999,95.438,541.732,537.8009999999998,0.0
51960.0,STARLINK-3691,PAYLOAD,2022-12-12 03:34:37,15.08848452,0.000276,53.2183,302.2437,25.9059,334.2071,0.0005107,7.851e-05,0.0,0 STARLINK-3691,1 51960U 22025E   22346.14905026  .00007851  00000-0  51070-3 0  9993,2 51960  53.2183 302.2437 0002760  25.9059 334.2071 15.08848452 43610,6917.855,95.437,541.629,537.81,0.0
51960.0,STARLINK-3691,PAYLOAD,2022-12-12 08:20:47,15.08837413,0.0002973,53.2183,301.3521,26.6835,333.431,0.00030436,4.559e-05,0.0,0 STARLINK-3691,1 51960U 22025E   22346.34777685  .00004559  00000-0  30436-3 0  9998,2 51960  53.2183 301.3521 0002973  26.6835 333.4310 15.08837413 43645,6917.888000000001,95.438,541.81,537.697,0.0
51960.0,STARLINK-3691,PAYLOAD,2022-12-13 08:11:34,15.08843675,0.0002993,53.2182,296.8918,27.6267,332.4884,-0.00011738,-2.157e-05,0.0,0 STARLINK-3691,1 51960U 22025E   22347.34137019 -.00002157  00000-0 -11738-3 0  9998,2 51960  53.2182 296.8918 0002993  27.6267 332.4884 15.08843675 42702,6917.869000000002,95.437,541.805,537.664,0.0
51960.0,STARLINK-3691,PAYLOAD,2022-12-13 20:54:38,15.08855236,0.0003028,53.2179,294.5133,27.1726,332.9424,0.00017775,2.543e-05,0.0,0 STARLINK-3691,1 51960U 22025E   22347.87128183  .00002543  00000-0  17775-3 0  9992,2 51960  53.2179 294.5133 0003028  27.1726 332.9424 15.08855236 43877,6917.834,95.437,541.794,537.604,0.0
51960.0,STARLINK-3691,PAYLOAD,2022-12-14 06:26:57,15.08853892,0.0002863,53.2178,292.7290000000001,24.8157,335.2972,0.00022805,3.344e-05,0.0,0 STARLINK-3691,1 51960U 22025E   22348.26872152  .00003344  00000-0  22805-3 0  9998,2 51960  53.2178 292.7290 0002863  24.8157 335.2972 15.08853892 42844,6917.8380000000025,95.437,541.684,537.722,0.0
51960.0,STARLINK-3691,PAYLOAD,2022-12-15 06:17:44,15.08840691,0.0002886,53.2179,288.2684,25.1192,334.994,-3.7728e-05,-8.89e-06,0.0,0 STARLINK-3691,1 51960U 22025E   22349.26232394 -.00000889  00000-0 -37728-4 0  9991,2 51960  53.2179 288.2684 0002886  25.1192 334.9940 15.08840691 44082,6917.878000000002,95.438,541.74,537.747,0.0
51960.0,STARLINK-3691,PAYLOAD,2022-12-15 07:53:07,15.08844164,0.0002852,53.2179,287.9712,25.2487,334.8644,3.4836e-05,2.66e-06,0.0,0 STARLINK-3691,1 51960U 22025E   22349.32856191  .00000266  00000-0  34836-4 0  9999,2 51960  53.2179 287.9712 0002852  25.2487 334.8644 15.08844164 43001,6917.868,95.437,541.706,537.76,0.0
51960.0,STARLINK-3691,PAYLOAD,2022-12-15 20:36:12,15.08846607,0.000288,53.2189,285.5919,27.485,332.6294,4.875e-05,4.88e-06,0.0,0 STARLINK-3691,1 51960U 22025E   22349.85848024  .00000488  00000-0  48750-4 0  9999,2 51960  53.2189 285.5919 0002880  27.4850 332.6294 15.08846607 43083,6917.86,95.437,541.7180000000002,537.7330000000002,0.0
51960.0,STARLINK-3691,PAYLOAD,2022-12-16 12:30:03,15.08845859,0.0002728,53.2184,282.6187,26.0086,334.1042,4.0663e-05,3.59e-06,0.0,0 STARLINK-3691,1 51960U 22025E   22350.52087877  .00000359  00000-0  40663-4 0  9998,2 51960  53.2184 282.6187 0002728  26.0086 334.1042 15.08845859 44278,6917.861999999999,95.437,541.615,537.84,0.0
51960.0,STARLINK-3691,PAYLOAD,2022-12-16 20:26:59,15.08840369,0.000276,53.2194,281.1319,25.2997,334.8130000000001,5.1068e-05,5.24e-06,0.0,0 STARLINK-3691,1 51960U 22025E   22350.85208282  .00000524  00000-0  51068-4 0  9994,2 51960  53.2194 281.1319 0002760  25.2997 334.8130 15.08840369 43239,6917.879,95.438,541.654,537.835,0.0
51960.0,STARLINK-3691,PAYLOAD,2022-12-17 04:23:56,15.08829203,0.0002815,53.2188,279.6452,22.8737,337.2381,1.201e-05,-9.7e-07,0.0,0 STARLINK-3691,1 51960U 22025E   22351.18329126 -.00000097  00000-0  12010-4 0  9992,2 51960  53.2188 279.6452 0002815  22.8737 337.2381 15.08829203 44373,6917.913000000001,95.438,541.726,537.831,0.0
51960.0,STARLINK-3691,PAYLOAD,2022-12-17 12:20:52,15.08823212,0.000287,53.2188,278.1573,23.1984,336.9137,-6.0995e-05,-1.259e-05,0.0,0 STARLINK-3691,1 51960U 22025E   22351.51449952 -.00001259  00000-0 -60995-4 0  9996,2 51960  53.2188 278.1573 0002870  23.1984 336.9137 15.08823212 43334,6917.932,95.439,541.7819999999998,537.811,0.0
